start=new Date('2022-12-23T00:00:00.000Z').valueOf();
sats=[{"RCS_SIZE":"LARGE","PERIAPSIS":"537.972","CENTER_NAME":"EARTH","RA_OF_ASC_NODE":"85.7074","EPHEMERIS_TYPE":"0","MEAN_MOTION_DDOT":"0.0000000000000","INCLINATION":"53.2159","GP_ID":"221200816","MEAN_ELEMENT_THEORY":"SGP4","DECAY_DATE":null,"MEAN_MOTION":"15.08835848","TLE_LINE1":"1 49445U 21104AP  22356.51652840  .00004224  00000-0  28339-3 0  9993","ARG_OF_PERICENTER":"30.1683","APOAPSIS":"541.544","ECCENTRICITY":"0.00025820","COUNTRY_CODE":"US","NORAD_CAT_ID":"49445","MEAN_MOTION_DOT":"0.00004224","SEMIMAJOR_AXIS":"6917.893","FILE":"3719197","REV_AT_EPOCH":"6166","LAUNCH_DATE":"2021-11-13","OBJECT_TYPE":"PAYLOAD","SITE":"AFETR","PERIOD":"95.438","TLE_LINE2":"2 49445  53.2159  85.7074 0002582  30.1683 329.9457 15.08835848 61660","EPOCH":"2022-12-22T12:23:48.053760","MEAN_ANOMALY":"329.9457","CLASSIFICATION_TYPE":"U","OBJECT_NAME":"STARLINK-3122","TIME_SYSTEM":"UTC","ELEMENT_SET_NO":"999","REF_FRAME":"TEME","OBJECT_ID":"2021-104AP","BSTAR":"0.00028339000000"},{"TLE_LINE1":"1 49446U 21104AQ  22356.69776999  .00001073  00000-0  85531-4 0  9992","INCLINATION":"53.2179","GP_ID":"221236445","DECAY_DATE":null,"MEAN_MOTION":"15.08829165","MEAN_ELEMENT_THEORY":"SGP4","MEAN_MOTION_DDOT":"0.0000000000000","EPHEMERIS_TYPE":"0","RA_OF_ASC_NODE":"74.8904","RCS_SIZE":"LARGE","CENTER_NAME":"EARTH","PERIAPSIS":"538.116","REV_AT_EPOCH":"6183","LAUNCH_DATE":"2021-11-13","MEAN_MOTION_DOT":"0.00001073","NORAD_CAT_ID":"49446","SEMIMAJOR_AXIS":"6917.914","FILE":"3719655","COUNTRY_CODE":"US","ECCENTRICITY":"0.00024030","ARG_OF_PERICENTER":"27.5602","APOAPSIS":"541.441","TLE_LINE2":"2 49446  53.2179  74.8904 0002403  27.5602 332.5517 15.08829165 61838","PERIOD":"95.438","SITE":"AFETR","OBJECT_TYPE":"PAYLOAD","BSTAR":"0.00008553100000","OBJECT_ID":"2021-104AQ","ELEMENT_SET_NO":"999","REF_FRAME":"TEME","TIME_SYSTEM":"UTC","CLASSIFICATION_TYPE":"U","OBJECT_NAME":"STARLINK-3099","MEAN_ANOMALY":"332.5517","EPOCH":"2022-12-22T16:44:47.327136"},{"ECCENTRICITY":"0.00027130","COUNTRY_CODE":"US","APOAPSIS":"541.626","ARG_OF_PERICENTER":"30.6306","FILE":"3719655","SEMIMAJOR_AXIS":"6917.884","NORAD_CAT_ID":"49447","MEAN_MOTION_DOT":"0.00000210","LAUNCH_DATE":"2021-11-13","REV_AT_EPOCH":"6167","EPHEMERIS_TYPE":"0","PERIAPSIS":"537.872","CENTER_NAME":"EARTH","RCS_SIZE":"LARGE","RA_OF_ASC_NODE":"85.4326","GP_ID":"221236695","MEAN_ELEMENT_THEORY":"SGP4","DECAY_DATE":null,"MEAN_MOTION":"15.08838715","INCLINATION":"53.2154","TLE_LINE1":"1 49447U 21104AR  22356.57540584  .00000210  00000-0  31306-4 0  9992","MEAN_MOTION_DDOT":"0.0000000000000","MEAN_ANOMALY":"329.4844","CLASSIFICATION_TYPE":"U","OBJECT_NAME":"STARLINK-3115","TIME_SYSTEM":"UTC","EPOCH":"2022-12-22T13:48:35.064576","BSTAR":"0.00003130600000","ELEMENT_SET_NO":"999","REF_FRAME":"TEME","OBJECT_ID":"2021-104AR","SITE":"AFETR","OBJECT_TYPE":"PAYLOAD","PERIOD":"95.438","TLE_LINE2":"2 49447  53.2154  85.4326 0002713  30.6306 329.4844 15.08838715 61679"},{"BSTAR":"-0.00000495270000","OBJECT_ID":"2021-104AS","ELEMENT_SET_NO":"999","REF_FRAME":"TEME","CLASSIFICATION_TYPE":"U","TIME_SYSTEM":"UTC","OBJECT_NAME":"STARLINK-3097","MEAN_ANOMALY":"315.0643","EPOCH":"2022-12-22T17:15:15.720480","TLE_LINE2":"2 49448  53.2167  84.7941 0002816  45.0577 315.0643 15.08833866 61695","PERIOD":"95.438","SITE":"AFETR","OBJECT_TYPE":"PAYLOAD","REV_AT_EPOCH":"6169","LAUNCH_DATE":"2021-11-13","NORAD_CAT_ID":"49448","MEAN_MOTION_DOT":"-0.00000367","SEMIMAJOR_AXIS":"6917.899","FILE":"3719655","COUNTRY_CODE":"US","ECCENTRICITY":"0.00028160","ARG_OF_PERICENTER":"45.0577","APOAPSIS":"541.712","TLE_LINE1":"1 49448U 21104AS  22356.71893195 -.00000367  00000-0 -49527-5 0  9998","INCLINATION":"53.2167","GP_ID":"221236947","DECAY_DATE":null,"MEAN_ELEMENT_THEORY":"SGP4","MEAN_MOTION":"15.08833866","MEAN_MOTION_DDOT":"0.0000000000000","EPHEMERIS_TYPE":"0","RA_OF_ASC_NODE":"84.7941","RCS_SIZE":"LARGE","CENTER_NAME":"EARTH","PERIAPSIS":"537.816"},{"ARG_OF_PERICENTER":"30.7132","APOAPSIS":"541.697","ECCENTRICITY":"0.00027910","COUNTRY_CODE":"US","MEAN_MOTION_DOT":"-0.00001800","NORAD_CAT_ID":"49449","FILE":"3719655","SEMIMAJOR_AXIS":"6917.901","REV_AT_EPOCH":"6167","LAUNCH_DATE":"2021-11-13","RCS_SIZE":"LARGE","CENTER_NAME":"EARTH","PERIAPSIS":"537.836","RA_OF_ASC_NODE":"85.4572","EPHEMERIS_TYPE":"0","MEAN_MOTION_DDOT":"0.0000000000000","INCLINATION":"53.2165","MEAN_MOTION":"15.08833141","GP_ID":"221237197","DECAY_DATE":null,"MEAN_ELEMENT_THEORY":"SGP4","TLE_LINE1":"1 49449U 21104AT  22356.57172463 -.00001800  00000-0 -95028-4 0  9990","EPOCH":"2022-12-22T13:43:17.008032","MEAN_ANOMALY":"329.4024","CLASSIFICATION_TYPE":"U","OBJECT_NAME":"STARLINK-3137","TIME_SYSTEM":"UTC","REF_FRAME":"TEME","ELEMENT_SET_NO":"999","OBJECT_ID":"2021-104AT","BSTAR":"-0.00009502800000","OBJECT_TYPE":"PAYLOAD","SITE":"AFETR","PERIOD":"95.438","TLE_LINE2":"2 49449  53.2165  85.4572 0002791  30.7132 329.4024 15.08833141 61678"},{"PERIAPSIS":"538.026","CENTER_NAME":"EARTH","RCS_SIZE":"LARGE","RA_OF_ASC_NODE":"85.7089","EPHEMERIS_TYPE":"0","MEAN_MOTION_DDOT":"0.0000000000000","GP_ID":"221201064","MEAN_ELEMENT_THEORY":"SGP4","DECAY_DATE":null,"MEAN_MOTION":"15.08836032","INCLINATION":"53.2185","TLE_LINE1":"1 49450U 21104AU  22356.51284799 -.00001068  00000-0 -48980-4 0  9993","APOAPSIS":"541.489","ARG_OF_PERICENTER":"37.7373","ECCENTRICITY":"0.00025030","COUNTRY_CODE":"US","SEMIMAJOR_AXIS":"6917.893","FILE":"3719197","MEAN_MOTION_DOT":"-0.00001068","NORAD_CAT_ID":"49450","LAUNCH_DATE":"2021-11-13","REV_AT_EPOCH":"6192","OBJECT_TYPE":"PAYLOAD","SITE":"AFETR","PERIOD":"95.438","TLE_LINE2":"2 49450  53.2185  85.7089 0002503  37.7373 322.3794 15.08836032 61929","EPOCH":"2022-12-22T12:18:30.066336","MEAN_ANOMALY":"322.3794","TIME_SYSTEM":"UTC","CLASSIFICATION_TYPE":"U","OBJECT_NAME":"STARLINK-3127","ELEMENT_SET_NO":"999","REF_FRAME":"TEME","OBJECT_ID":"2021-104AU","BSTAR":"-0.00004898000000"},{"TLE_LINE2":"2 49451  53.2152  84.5903 0002792  56.3638 303.7620 15.08844807 61703","PERIOD":"95.437","OBJECT_TYPE":"PAYLOAD","SITE":"AFETR","OBJECT_ID":"2021-104AV","ELEMENT_SET_NO":"999","REF_FRAME":"TEME","BSTAR":"0.00036075000000","EPOCH":"2022-12-22T18:24:09.450720","CLASSIFICATION_TYPE":"U","TIME_SYSTEM":"UTC","OBJECT_NAME":"STARLINK-3125","MEAN_ANOMALY":"303.7620","MEAN_MOTION_DDOT":"0.0000000000000","TLE_LINE1":"1 49451U 21104AV  22356.76677605  .00005459  00000-0  36075-3 0  9990","INCLINATION":"53.2152","GP_ID":"221236196","DECAY_DATE":null,"MEAN_ELEMENT_THEORY":"SGP4","MEAN_MOTION":"15.08844807","RA_OF_ASC_NODE":"84.5903","RCS_SIZE":"LARGE","CENTER_NAME":"EARTH","PERIAPSIS":"537.799","EPHEMERIS_TYPE":"0","REV_AT_EPOCH":"6170","LAUNCH_DATE":"2021-11-13","MEAN_MOTION_DOT":"0.00005459","NORAD_CAT_ID":"49451","SEMIMAJOR_AXIS":"6917.866","FILE":"3719655","ARG_OF_PERICENTER":"56.3638","APOAPSIS":"541.662","COUNTRY_CODE":"US","ECCENTRICITY":"0.00027920"},{"ARG_OF_PERICENTER":"28.8328","APOAPSIS":"541.490","ECCENTRICITY":"0.00024980","COUNTRY_CODE":"US","NORAD_CAT_ID":"49452","MEAN_MOTION_DOT":"-0.00000076","FILE":"3719655","SEMIMAJOR_AXIS":"6917.897","REV_AT_EPOCH":"6169","LAUNCH_DATE":"2021-11-13","RCS_SIZE":"LARGE","CENTER_NAME":"EARTH","PERIAPSIS":"538.034","RA_OF_ASC_NODE":"84.9428","EPHEMERIS_TYPE":"0","MEAN_MOTION_DDOT":"0.0000000000000","INCLINATION":"53.2176","MEAN_MOTION":"15.08834695","GP_ID":"221237446","DECAY_DATE":null,"MEAN_ELEMENT_THEORY":"SGP4","TLE_LINE1":"1 49452U 21104AW  22356.68676344 -.00000076  00000-0  13351-4 0  9995","EPOCH":"2022-12-22T16:28:56.361216","MEAN_ANOMALY":"331.2801","CLASSIFICATION_TYPE":"U","OBJECT_NAME":"STARLINK-3150","TIME_SYSTEM":"UTC","ELEMENT_SET_NO":"999","REF_FRAME":"TEME","OBJECT_ID":"2021-104AW","BSTAR":"0.00001335100000","OBJECT_TYPE":"PAYLOAD","SITE":"AFETR","PERIOD":"95.438","TLE_LINE2":"2 49452  53.2176  84.9428 0002498  28.8328 331.2801 15.08834695 61698"},{"REV_AT_EPOCH":"6170","LAUNCH_DATE":"2021-11-13","MEAN_MOTION_DOT":"0.00006586","NORAD_CAT_ID":"49453","FILE":"3719655","SEMIMAJOR_AXIS":"6917.846","COUNTRY_CODE":"US","ECCENTRICITY":"0.00022700","ARG_OF_PERICENTER":"53.5767","APOAPSIS":"541.281","TLE_LINE1":"1 49453U 21104AX  22356.75941338  .00006586  00000-0  43139-3 0  9999","INCLINATION":"53.2159","MEAN_ELEMENT_THEORY":"SGP4","GP_ID":"221237697","DECAY_DATE":null,"MEAN_MOTION":"15.08851286","MEAN_MOTION_DDOT":"0.0000000000000","EPHEMERIS_TYPE":"0","RA_OF_ASC_NODE":"84.6198","RCS_SIZE":"LARGE","CENTER_NAME":"EARTH","PERIAPSIS":"538.141","BSTAR":"0.00043139000000","OBJECT_ID":"2021-104AX","ELEMENT_SET_NO":"999","REF_FRAME":"TEME","CLASSIFICATION_TYPE":"U","TIME_SYSTEM":"UTC","OBJECT_NAME":"STARLINK-3129","MEAN_ANOMALY":"306.5434","EPOCH":"2022-12-22T18:13:33.316032","TLE_LINE2":"2 49453  53.2159  84.6198 0002270  53.5767 306.5434 15.08851286 61705","PERIOD":"95.437","SITE":"AFETR","OBJECT_TYPE":"PAYLOAD"},{"BSTAR":"-0.00002035200000","OBJECT_ID":"2021-104AY","ELEMENT_SET_NO":"999","REF_FRAME":"TEME","OBJECT_NAME":"STARLINK-3160","CLASSIFICATION_TYPE":"U","TIME_SYSTEM":"UTC","MEAN_ANOMALY":"328.8344","EPOCH":"2022-12-22T18:18:50.320224","TLE_LINE2":"2 49454  53.2172  84.5970 0002304  31.2784 328.8344 15.08839061 61702","PERIOD":"95.438","SITE":"AFETR","OBJECT_TYPE":"PAYLOAD","LAUNCH_DATE":"2021-11-13","REV_AT_EPOCH":"6170","SEMIMAJOR_AXIS":"6917.883","FILE":"3719655","NORAD_CAT_ID":"49454","MEAN_MOTION_DOT":"-0.00000612","COUNTRY_CODE":"US","ECCENTRICITY":"0.00023040","APOAPSIS":"541.342","ARG_OF_PERICENTER":"31.2784","TLE_LINE1":"1 49454U 21104AY  22356.76308241 -.00000612  00000-0 -20352-4 0  9990","GP_ID":"221236446","DECAY_DATE":null,"MEAN_ELEMENT_THEORY":"SGP4","MEAN_MOTION":"15.08839061","INCLINATION":"53.2172","MEAN_MOTION_DDOT":"0.0000000000000","EPHEMERIS_TYPE":"0","RA_OF_ASC_NODE":"84.5970","PERIAPSIS":"538.154","CENTER_NAME":"EARTH","RCS_SIZE":"LARGE"}];
